#aV2008 10 20  0  0   .00000000      96 DD+AD WGS84 FIT  NGA
## 1502  86400.00000000   900.00000000 54759  .0000000000000
+   31     2  3  4  5  6  7  8  9 10 11 12 13 14 15 16 17 18
+         19 20 21 22 23 24 25 26 27 28 29 30 31 32  0  0  0
+          0  0  0  0  0  0  0  0  0  0  0  0  0  0  0  0  0
+          0  0  0  0  0  0  0  0  0  0  0  0  0  0  0  0  0
+          0  0  0  0  0  0  0  0  0  0  0  0  0  0  0  0  0
++         0  0  0  0  0  0  0  0  0  0  0  0  0  0  0  0  0
++         0  0  0  0  0  0  0  0  0  0  0  0  0  0  0  0  0
++         0  0  0  0  0  0  0  0  0  0  0  0  0  0  0  0  0
++         0  0  0  0  0  0  0  0  0  0  0  0  0  0  0  0  0
++         0  0  0  0  0  0  0  0  0  0  0  0  0  0  0  0  0
%c cc cc ccc ccc cccc cccc cccc cccc ccccc ccccc ccccc ccccc
%c cc cc ccc ccc cccc cccc cccc cccc ccccc ccccc ccccc ccccc
%f  0.0000000  0.000000000  0.00000000000  0.000000000000000
%f  0.0000000  0.000000000  0.00000000000  0.000000000000000
%i    0    0    0    0      0      0      0      0         0
%i    0    0    0    0      0      0      0      0         0
/*      NGA, ST. LOUIS,MO.                                  
/*   EPHEMERIS COMPUTED FROM  3 DAYS OF DATA                
/* CCCCCCCCCCCCCCCCCCCCCCCCCCCCCCCCCCCCCCCCCCCCCCCCCCCCCCCCC
/* CCCCCCCCCCCCCCCCCCCCCCCCCCCCCCCCCCCCCCCCCCCCCCCCCCCCCCCCC
*  2008 10 20 23  0   .00000000                                                 
P  2  -7510.920596 -19208.987187  16802.931186    178.760667                    
V  2  19186.337509   9892.592904  19354.889850      -.026529                    
P  3    225.751982  17767.654796 -19931.616487    299.709782                    
V  3 -21686.622322  12366.234010  11295.131357       .053226                    
P  4   8095.184694 -13299.563175  21398.409741   -206.784442                    
V  4  23096.935886  14959.394197    924.424137      -.116501                    
P  5 -14578.548977 -10075.996290  19526.304750   -308.117998                    
V  5    309.929954 -25492.137238 -12606.092812      -.548150                    
P  6  -5660.938173  18501.682425 -18007.463114    156.218823                    
V  6 -21306.389122   9725.947560  16525.918335      -.048993                    
P  7  22931.066845   4300.066443 -12815.828791     22.254458                    
V  7  12426.142987  10584.329603  25733.807843       .008522                    
P  8  15756.500154  -5572.006597 -20837.792066   -174.852225                    
V  8  20790.983909  15779.460442  11058.878226      -.015768                    
P  9 -21552.700142 -15427.441007  -3145.791015     20.811903                    
V  9   3890.876011   -284.201195 -31635.943137       .019760                    
P 10  -1588.435060 -25857.021633  -5136.153363     -6.282003                    
V 10   3474.034043  -6157.615687  31077.650091      -.004653                    
P 11  24083.704408  11450.598434  -2227.574034     17.413495                    
V 11  -4157.872798   3353.119867 -29740.988326      -.008299                    
P 12 -11666.939702 -15719.788485  18068.430065   -345.354169                    
V 12   2710.584681 -22633.735244 -17919.143260       .020473                    
P 13  24418.370458  -4176.853910   9457.423949    274.685153                    
V 13 -10441.437835   6384.007055  29424.150589       .010494                    
P 14 -19369.079415  15687.571167   9121.739565   -204.905303                    
V 14 -11111.257034   3203.378483 -29582.612159       .048522                    
P 15  -9679.519740 -12065.022073 -21562.843311   -197.391927                    
V 15  24168.008742 -13044.928780  -3521.898389      -.063394                    
P 16  -2692.772138  26284.595903   1140.035322    100.267661                    
V 16  -2716.814494  -1587.117817  31972.288897      -.022167                    
P 17  20000.234995 -15662.793443   7476.218242     39.640590                    
V 17   9755.874692  -1652.453044 -29901.279755       .004161                    
P 18 -15387.931866   6044.807446 -20508.495321   -121.385130                    
V 18   1159.092687 -26646.436421  -9000.198783       .039771                    
P 19  10639.887859  11753.999992 -21268.562237     35.671896                    
V 19 -24816.270694  11016.393720  -6096.000858      -.000218                    
P 20  13582.781392  11989.626864  19321.666384    101.336658                    
V 20  -2259.565310  24757.680074 -13655.874816      -.010439                    
P 21 -21333.806367   -295.876529 -15974.490427     45.880217                    
V 21 -15778.851498 -13270.715048  20421.050469      -.014991                    
P 22 -11853.352298  19181.599153 -13824.050332    210.223288                    
V 22  -1011.673558 -18066.764251 -23978.840330      -.003382                    
P 23  20139.173254   2985.020897  17149.633471    377.391968                    
V 23 -18790.225610  11036.426012  19818.732720       .012955                    
P 24 -22827.870120 -12336.995698  -4777.219356    134.731369                    
V 24  -3194.629301  -6351.745676  30955.923517       .029991                    
P 25  24387.872574   8430.259483  -5530.454867    -45.143534                    
V 25   5388.015298   5903.920676  30960.064809       .344384                    
P 26  -4002.226718 -14272.085025 -22504.401369      5.230859                    
V 26  25075.213940 -10849.126253   2991.374282       .049239                    
P 27  21958.395646   1247.773742 -14290.546253    226.613609                    
V 27  15769.329235  11250.139134  23972.167694       .028764                    
P 28  11971.450405 -17711.208663 -15146.302894    -23.207831                    
V 28    638.813857  20189.179514 -22848.308662      -.002616                    
P 29 -23574.425341   1895.167097  12159.364337    -33.634959                    
V 29  12751.580202  -8759.943423  26352.349376       .015948                    
P 30 -15286.655465   -134.900455  21360.418230    103.177027                    
V 30    275.086056 -28018.851834    105.235565       .021820                    
P 31  -4367.900461  14907.056171  21736.805069    -33.655543                    
V 31 -23014.823080 -14313.798884   5346.276693      -.022386                    
P 32   8795.391200  19356.764844  16474.216264    315.983266                    
V 32  -4233.796384  19630.696735 -21171.052103      -.006171                    
EOF
